ONEWEB-0350             
1 49214U 21083AE  26027.64922314  .00000278  00000+0  72606-3 0  9992
2 49214  87.9017 348.1523 0001957  89.3985 270.7369 13.13471107212483
ONEWEB-0351             
1 49215U 21083AF  26027.73035052 -.00000048  00000+0 -14964-3 0  9997
2 49215  87.9233 302.4633 0000882  94.9398 265.1836 13.20770996218237
ONEWEB-0352             
1 49216U 21083AG  26027.85828321  .00000111  00000+0  26815-3 0  9997
2 49216  87.9010 348.1284 0001433  87.4610 272.6683 13.13470097212606
ONEWEB-0354             
1 49217U 21083AH  26027.30119448  .00000066  00000+0  12972-3 0  9999
2 49217  87.9228 302.5487 0001891  84.3442 275.7907 13.20773415218218
ONEWEB-0355             
1 49218U 21083AJ  26027.81102907  .00000129  00000+0  31768-3 0  9992
2 49218  87.9010 348.1501 0001706  85.8365 274.2959 13.13470267212470
ONEWEB-0357             
1 49219U 21083AK  26027.75257454 -.00000002  00000+0 -36057-4 0  9993
2 49219  87.9227 302.4538 0001492  81.1567 278.9735 13.20774503218274
ONEWEB-0332             
1 49279U 21090A   26027.78131954  .00000189  00000+0  47435-3 0  9991
2 49279  87.9019 317.6998 0001513  72.5958 287.5337 13.14502915209137
ONEWEB-0347             
1 49280U 21090B   26027.74308521 -.00000388  00000+0 -98568-3 0  9991
2 49280  87.9222 302.4649 0001576  65.6294 294.5003 13.20771390212500
